{"type": "FeatureCollection", "features": [ {"type": "Feature", "properties": {"norad_id": 36073, "name": "COSMOS 2251 DEB", "group": "cosmos-2251-debris", "lat": -72.35069670848671, "lon": -150.93368575366716, "alt_km": 793.2931704063385, "timestamp": "2025-12-11T10:53:16.287210+00:00", "meta": {"OBJECT_NAME": "COSMOS 2251 DEB", "OBJECT_ID": "1993-036AYL", "EPOCH": "2025-12-10T05:13:27.011136", "MEAN_MOTION": 14.34947803, "ECCENTRICITY": 0.0023742, "INCLINATION": 74.0319, "RA_OF_ASC_NODE": 327.182, "ARG_OF_PERICENTER": 35.9086, "MEAN_ANOMALY": 324.3656, "EPHEMERIS_TYPE": 0, "CLASSIFICATION_TYPE": "U", "NORAD_CAT_ID": 36073, "ELEMENT_SET_NO": 999, "REV_AT_EPOCH": 70171, "BSTAR": 0.00037536, "MEAN_MOTION_DOT": 1.045e-05, "MEAN_MOTION_DDOT": 0}, "tle": {"line1": "1 36073U 93036AYL 25344.21767374  .00001045  00000+0  37536-3 0  9991", "line2": "2 36073  74.0319 327.1820 0023742  35.9086 324.3656 14.34947803701715"}}, "geometry": {"type": "Point", "coordinates": [-150.93368575366716, -72.35069670848671]}}, {"type": "Feature", "properties": {"norad_id": 36074, "name": "COSMOS 2251 DEB", "group": "cosmos-2251-debris", "lat": -1.4516862146115703, "lon": -17.52678202168537, "alt_km": 742.279462562773, "timestamp": "2025-12-11T10:53:16.287220+00:00", "meta": {"OBJECT_NAME": "COSMOS 2251 DEB", "OBJECT_ID": "1993-036AYM", "EPOCH": "2025-12-04T07:35:54.379968", "MEAN_MOTION": 14.43651509, "ECCENTRICITY": 0.0041318, "INCLINATION": 73.9929, "RA_OF_ASC_NODE": 356.1864, "ARG_OF_PERICENTER": 90.6412, "MEAN_ANOMALY": 269.9479, "EPHEMERIS_TYPE": 0, "CLASSIFICATION_TYPE": "U", "NORAD_CAT_ID": 36074, "ELEMENT_SET_NO": 999, "REV_AT_EPOCH": 85788, "BSTAR": 0.0017767, "MEAN_MOTION_DOT": 6.071e-05, "MEAN_MOTION_DDOT": 0}, "tle": {"line1": "1 36074U 93036AYM 25338.31660162  .00006071  00000+0  17767-2 0  9990", "line2": "2 36074  73.9929 356.1864 0041318  90.6412 269.9479 14.43651509857883"}}, "geometry": {"type": "Point", "coordinates": [-17.52678202168537, -1.4516862146115703]}}, {"type": "Feature", "properties": {"norad_id": 36366, "name": "COSMOS 2251 DEB", "group": "cosmos-2251-debris", "lat": -17.21337422041041, "lon": -89.66372457368628, "alt_km": 733.8078377488564, "timestamp": "2025-12-11T10:53:16.287230+00:00", "meta": {"OBJECT_NAME": "COSMOS 2251 DEB", "OBJECT_ID": "1993-036AYT", "EPOCH": "2025-12-09T13:44:37.159584", "MEAN_MOTION": 14.33338219, "ECCENTRICITY": 0.0090898, "INCLINATION": 74.0656, "RA_OF_ASC_NODE": 278.8454, "ARG_OF_PERICENTER": 307.7057, "MEAN_ANOMALY": 51.5877, "EPHEMERIS_TYPE": 0, "CLASSIFICATION_TYPE": "U", "NORAD_CAT_ID": 36366, "ELEMENT_SET_NO": 999, "REV_AT_EPOCH": 86243, "BSTAR": 0.0032091, "MEAN_MOTION_DOT": 9.245e-05, "MEAN_MOTION_DDOT": 0}, "tle": {"line1": "1 36366U 93036AYT 25343.57265231  .00009245  00000+0  32091-2 0  9999", "line2": "2 36366  74.0656 278.8454 0090898 307.7057  51.5877 14.33338219862438"}}, "geometry": {"type": "Point", "coordinates": [-89.66372457368628, -17.21337422041041]}}, {"type": "Feature", "properties": {"norad_id": 36367, "name": "COSMOS 2251 DEB", "group": "cosmos-2251-debris", "lat": -50.24223915844335, "lon": 73.62606394789962, "alt_km": 889.7311936270798, "timestamp": "2025-12-11T10:53:16.287240+00:00", "meta": {"OBJECT_NAME": "COSMOS 2251 DEB", "OBJECT_ID": "1993-036AYU", "EPOCH": "2025-12-11T01:04:58.660032", "MEAN_MOTION": 13.86314595, "ECCENTRICITY": 0.0262521, "INCLINATION": 74.1007, "RA_OF_ASC_NODE": 234.2792, "ARG_OF_PERICENTER": 307.5422, "MEAN_ANOMALY": 50.2108, "EPHEMERIS_TYPE": 0, "CLASSIFICATION_TYPE": "U", "NORAD_CAT_ID": 36367, "ELEMENT_SET_NO": 999, "REV_AT_EPOCH": 57506, "BSTAR": 0.0022824, "MEAN_MOTION_DOT": 3.437e-05, "MEAN_MOTION_DDOT": 0}, "tle": {"line1": "1 36367U 93036AYU 25345.04512338  .00003437  00000+0  22824-2 0  9997", "line2": "2 36367  74.1007 234.2792 0262521 307.5422  50.2108 13.86314595575060"}}, "geometry": {"type": "Point", "coordinates": [73.62606394789962, -50.24223915844335]}}, {"type": "Feature", "properties": {"norad_id": 36369, "name": "COSMOS 2251 DEB", "group": "cosmos-2251-debris", "lat": -7.063589306684852, "lon": 71.21231811517009, "alt_km": 661.0704639113228, "timestamp": "2025-12-11T10:53:16.287250+00:00", "meta": {"OBJECT_NAME": "COSMOS 2251 DEB", "OBJECT_ID": "1993-036AYW", "EPOCH": "2025-12-08T12:51:14.336640", "MEAN_MOTION": 14.73446953, "ECCENTRICITY": 0.00117103, "INCLINATION": 74.038, "RA_OF_ASC_NODE": 78.9305, "ARG_OF_PERICENTER": 158.6263, "MEAN_ANOMALY": 201.5401, "EPHEMERIS_TYPE": 0, "CLASSIFICATION_TYPE": "U", "NORAD_CAT_ID": 36369, "ELEMENT_SET_NO": 999, "REV_AT_EPOCH": 85860, "BSTAR": 0.0020709111, "MEAN_MOTION_DOT": 0.0001345, "MEAN_MOTION_DDOT": 0}, "tle": {"line1": "1 36369U 93036AYW 25342.53558260  .00013450  00000+0  20709-2 0  9990", "line2": "2 36369  74.0380  78.9305 0011710 158.6263 201.5401 14.73446953858600"}}, "geometry": {"type": "Point", "coordinates": [71.21231811517009, -7.063589306684852]}}, {"type": "Feature", "properties": {"norad_id": 36371, "name": "COSMOS 2251 DEB", "group": "cosmos-2251-debris", "lat": -72.61613072838954, "lon": 97.71350446207033, "alt_km": 664.315655922177, "timestamp": "2025-12-11T10:53:16.287260+00:00", "meta": {"OBJECT_NAME": "COSMOS 2251 DEB", "OBJECT_ID": "1993-036AYY", "EPOCH": "2025-12-07T19:05:47.723136", "MEAN_MOTION": 14.70448722, "ECCENTRICITY": 0.00102244, "INCLINATION": 74.0118, "RA_OF_ASC_NODE": 171.1395, "ARG_OF_PERICENTER": 209.6534, "MEAN_ANOMALY": 150.4058, "EPHEMERIS_TYPE": 0, "CLASSIFICATION_TYPE": "U", "NORAD_CAT_ID": 36371, "ELEMENT_SET_NO": 999, "REV_AT_EPOCH": 71372, "BSTAR": 0.0029870702, "MEAN_MOTION_DOT": 0.00018131, "MEAN_MOTION_DDOT": 0}, "tle": {"line1": "1 36371U 93036AYY 25341.79569124  .00018131  00000+0  29871-2 0  9991", "line2": "2 36371  74.0118 171.1395 0010224 209.6534 150.4058 14.70448722713720"}}, "geometry": {"type": "Point", "coordinates": [97.71350446207033, -72.61613072838954]}}, {"type": "Feature", "properties": {"norad_id": 36379, "name": "COSMOS 2251 DEB", "group": "cosmos-2251-debris", "lat": -55.45021320781316, "lon": 153.79639756749012, "alt_km": 808.1407579207089, "timestamp": "2025-12-11T10:53:16.287271+00:00", "meta": {"OBJECT_NAME": "COSMOS 2251 DEB", "OBJECT_ID": "1993-036AZG", "EPOCH": "2025-12-08T04:58:44.675328", "MEAN_MOTION": 14.36066652, "ECCENTRICITY": 0.00445661, "INCLINATION": 74.0122, "RA_OF_ASC_NODE": 315.1569, "ARG_OF_PERICENTER": 85.444, "MEAN_ANOMALY": 297.6264, "EPHEMERIS_TYPE": 0, "CLASSIFICATION_TYPE": "U", "NORAD_CAT_ID": 36379, "ELEMENT_SET_NO": 999, "REV_AT_EPOCH": 64763, "BSTAR": 0.0005365522, "MEAN_MOTION_DOT": 1.553e-05, "MEAN_MOTION_DDOT": 0}, "tle": {"line1": "1 36379U 93036AZG 25342.20746152  .00001553  00000+0  53655-3 0  9992", "line2": "2 36379  74.0122 315.1569 0044566  85.4440 297.6264 14.36066652647637"}}, "geometry": {"type": "Point", "coordinates": [153.79639756749012, -55.45021320781316]}}, {"type": "Feature", "properties": {"norad_id": 36385, "name": "COSMOS 2251 DEB", "group": "cosmos-2251-debris", "lat": 21.419355918342674, "lon": 163.52958534126884, "alt_km": 588.7826288234446, "timestamp": "2025-12-11T10:53:16.287282+00:00", "meta": {"OBJECT_NAME": "COSMOS 2251 DEB", "OBJECT_ID": "1993-036AZN", "EPOCH": "2025-12-10T21:44:41.233056", "MEAN_MOTION": 14.72509085, "ECCENTRICITY": 0.0141261, "INCLINATION": 73.9697, "RA_OF_ASC_NODE": 158.1239, "ARG_OF_PERICENTER": 332.9366, "MEAN_ANOMALY": 26.4487, "EPHEMERIS_TYPE": 0, "CLASSIFICATION_TYPE": "U", "NORAD_CAT_ID": 36385, "ELEMENT_SET_NO": 999, "REV_AT_EPOCH": 85075, "BSTAR": 0.0020019, "MEAN_MOTION_DOT": 0.00014888, "MEAN_MOTION_DDOT": 0}, "tle": {"line1": "1 36385U 93036AZN 25344.90603279  .00014888  00000+0  20019-2 0  9992", "line2": "2 36385  73.9697 158.1239 0141261 332.9366  26.4487 14.72509085850751"}}, "geometry": {"type": "Point", "coordinates": [163.52958534126884, 21.419355918342674]}}, {"type": "Feature", "properties": {"norad_id": 36420, "name": "COSMOS 2251 DEB", "group": "cosmos-2251-debris", "lat": 61.069786835333275, "lon": 66.65740685656378, "alt_km": 766.514801821264, "timestamp": "2025-12-11T10:53:16.287292+00:00", "meta": {"OBJECT_NAME": "COSMOS 2251 DEB", "OBJECT_ID": "1993-036AZT", "EPOCH": "2025-12-09T05:12:09.080064", "MEAN_MOTION": 14.36895704, "ECCENTRICITY": 0.001793, "INCLINATION": 74.0374, "RA_OF_ASC_NODE": 281.9559, "ARG_OF_PERICENTER": 10.5601, "MEAN_ANOMALY": 57.255, "EPHEMERIS_TYPE": 0, "CLASSIFICATION_TYPE": "U", "NORAD_CAT_ID": 36420, "ELEMENT_SET_NO": 999, "REV_AT_EPOCH": 84986, "BSTAR": 0.00029505, "MEAN_MOTION_DOT": 8.48e-06, "MEAN_MOTION_DDOT": 0}, "tle": {"line1": "1 36420U 93036AZT 25343.21677176  .00000848  00000+0  29505-3 0  9993", "line2": "2 36420  74.0374 281.9559 0017930  10.5601  57.2550 14.36895704849860"}}, "geometry": {"type": "Point", "coordinates": [66.65740685656378, 61.069786835333275]}}, {"type": "Feature", "properties": {"norad_id": 36430, "name": "COSMOS 2251 DEB", "group": "cosmos-2251-debris", "lat": 3.814267516214354, "lon": -70.23053206259816, "alt_km": 794.6221149423573, "timestamp": "2025-12-11T10:53:16.287302+00:00", "meta": {"OBJECT_NAME": "COSMOS 2251 DEB", "OBJECT_ID": "1993-036BAD", "EPOCH": "2025-12-07T15:14:59.696160", "MEAN_MOTION": 14.27773173, "ECCENTRICITY": 0.00973352, "INCLINATION": 74.0036, "RA_OF_ASC_NODE": 117.7938, "ARG_OF_PERICENTER": 268.8676, "MEAN_ANOMALY": 90.1319, "EPHEMERIS_TYPE": 0, "CLASSIFICATION_TYPE": "U", "NORAD_CAT_ID": 36430, "ELEMENT_SET_NO": 999, "REV_AT_EPOCH": 64484, "BSTAR": 0.00083938099, "MEAN_MOTION_DOT": 2.154e-05, "MEAN_MOTION_DDOT": 0}, "tle": {"line1": "1 36430U 93036BAD 25341.63541315  .00002154  00000+0  83938-3 0  9995", "line2": "2 36430  74.0036 117.7938 0097335 268.8676  90.1319 14.27773173644845"}}, "geometry": {"type": "Point", "coordinates": [-70.23053206259816, 3.814267516214354]}}]}